NORAD_CAT_ID,OBJECT_NAME,OBJECT_TYPE,EPOCH,MEAN_MOTION,ECCENTRICITY,INCLINATION,RA_OF_ASC_NODE,ARG_OF_PERICENTER,MEAN_ANOMALY,BSTAR,MEAN_MOTION_DOT,MEAN_MOTION_DDOT,TLE_LINE0,TLE_LINE1,TLE_LINE2,SEMIMAJOR_AXIS,PERIOD,APOGEE,PERIGEE,DECAYED
53005.0,STARLINK-4288,PAYLOAD,2024-02-15 18:36:25,15.08846016,0.0001343,53.2149,234.0833,76.2204,283.8938,0.00017335,2.472e-05,0.0,0 STARLINK-4288,1 53005U 22076V   24046.77529445  .00002472  00000-0  17335-3 0  9996,2 53005  53.2149 234.0833 0001343  76.2204 283.8938 15.08846016 89652,6917.862,95.437,540.656,538.798,0.0
53005.0,STARLINK-4288,PAYLOAD,2024-02-15 21:47:11,15.08848786,0.0001347,53.2151,233.4883,78.9785,281.1358,0.00021118,3.075e-05,0.0,0 STARLINK-4288,1 53005U 22076V   24046.90777277  .00003075  00000-0  21118-3 0  9993,2 53005  53.2151 233.4883 0001347  78.9785 281.1358 15.08848786 89204,6917.854,95.437,540.65,538.787,0.0
53005.0,STARLINK-4288,PAYLOAD,2024-02-16 05:44:07,15.08847408,0.0001313,53.2148,232.0013,81.6906,278.4235,0.00017128,2.44e-05,0.0,0 STARLINK-4288,1 53005U 22076V   24047.23897300  .00002440  00000-0  17128-3 0  9991,2 53005  53.2148 232.0013 0001313  81.6906 278.4235 15.08847408 89257,6917.858,95.437,540.631,538.814,0.0
53005.0,STARLINK-4288,PAYLOAD,2024-02-16 21:37:58,15.08853985,0.0001371,53.215,229.0266,80.6023,279.5124,0.00033342,5.024e-05,0.0,0 STARLINK-4288,1 53005U 22076V   24047.90136995  .00005024  00000-0  33342-3 0  9998,2 53005  53.2150 229.0266 0001371  80.6023 279.5124 15.08853985 89356,6917.838,95.437,540.651,538.754,0.0
53005.0,STARLINK-4288,PAYLOAD,2024-02-17 05:34:54,15.08849092,0.0001183,53.2152,227.5383,93.6534,266.4593,0.00017881,2.56e-05,0.0,0 STARLINK-4288,1 53005U 22076V   24048.23257001  .00002560  00000-0  17881-3 0  9999,2 53005  53.2152 227.5383 0001183  93.6534 266.4593 15.08849092 89879,6917.853,95.437,540.536,538.899,0.0
53005.0,STARLINK-4288,PAYLOAD,2024-02-17 18:17:59,15.08842003,0.0001344,53.2155,225.1612,88.9018,271.2128,1.7815e-05,-4e-08,0.0,0 STARLINK-4288,1 53005U 22076V   24048.76249269 -.00000004  00000-0  17815-4 0  9994,2 53005  53.2155 225.1612 0001344  88.9018 271.2128 15.08842003 89956,6917.874,95.437,540.669,538.81,0.0
53005.0,STARLINK-4288,PAYLOAD,2024-02-17 21:28:45,15.08841731,0.0001487,53.2175,224.5629,99.5559,260.5601,-2.9909e-06,-3.36e-06,0.0,0 STARLINK-4288,1 53005U 22076V   24048.89497207 -.00000336  00000-0 -29909-5 0  9992,2 53005  53.2175 224.5629 0001487  99.5559 260.5601 15.08841731 89500,6917.875,95.437,540.769,538.711,0.0
53005.0,STARLINK-4288,PAYLOAD,2024-02-18 14:58:00,15.08842948,0.0001295,53.2167,221.2925,101.9443,258.1695,0.00013776,1.905e-05,0.0,0 STARLINK-4288,1 53005U 22076V   24049.62361206  .00001905  00000-0  13776-3 0  9997,2 53005  53.2167 221.2925 0001295 101.9443 258.1695 15.08842948 89610,6917.871,95.437,540.632,538.841,0.0
53005.0,STARLINK-4288,PAYLOAD,2024-02-18 21:19:32,15.08849122,0.0001299,53.2163,220.1053,97.0669,263.0471,0.00013221,1.817e-05,0.0,0 STARLINK-4288,1 53005U 22076V   24049.88856851  .00001817  00000-0  13221-3 0  9997,2 53005  53.2163 220.1053 0001299  97.0669 263.0471 15.08849122 89657,6917.853,95.437,540.616,538.819,0.0
53005.0,STARLINK-4288,PAYLOAD,2024-02-19 14:48:47,15.08833348,0.0001312,53.2152,216.8317,92.6776,267.4366,4.9818e-05,5.05e-06,0.0,0 STARLINK-4288,1 53005U 22076V   24050.61721839  .00000505  00000-0  49818-4 0  9992,2 53005  53.2152 216.8317 0001312  92.6776 267.4366 15.08833348 89762,6917.901,95.438,540.673,538.858,0.0
53005.0,STARLINK-4288,PAYLOAD,2024-02-19 17:59:33,15.08837573,0.0001222,53.2154,216.2387,89.7675,270.3458,0.00012367,1.681e-05,0.0,0 STARLINK-4288,1 53005U 22076V   24050.74969674  .00001681  00000-0  12367-3 0  9991,2 53005  53.2154 216.2387 0001222  89.7675 270.3458 15.08837573 90255,6917.888,95.438,540.598,538.907,0.0
53005.0,STARLINK-4288,PAYLOAD,2024-02-20 14:39:34,15.08833012,0.0001459,53.2166,212.3765,100.5668,259.5488,-2.3143e-05,-6.56e-06,0.0,0 STARLINK-4288,1 53005U 22076V   24051.61082168 -.00000656  00000-0 -23143-4 0  9990,2 53005  53.2166 212.3765 0001459 100.5668 259.5488 15.08833012 89918,6917.902,95.438,540.776,538.757,0.0
53005.0,STARLINK-4288,PAYLOAD,2024-02-20 19:25:44,15.08836922,0.0001518,53.2162,211.4835,99.6044,260.5119,3.4813e-05,2.66e-06,0.0,0 STARLINK-4288,1 53005U 22076V   24051.80954047  .00000266  00000-0  34813-4 0  9996,2 53005  53.2162 211.4835 0001518  99.6044 260.5119 15.08836922 90417,6917.89,95.438,540.805,538.705,0.0
53005.0,STARLINK-4288,PAYLOAD,2024-02-21 14:30:21,15.08843915,0.0001531,53.2154,207.9139,109.8806,250.2351,0.00016293,2.306e-05,0.0,0 STARLINK-4288,1 53005U 22076V   24052.60441823  .00002306  00000-0  16293-3 0  9996,2 53005  53.2154 207.9139 0001531 109.8806 250.2351 15.08843915 90065,6917.868,95.437,540.793,538.674,0.0
53005.0,STARLINK-4288,PAYLOAD,2024-02-21 17:41:07,15.08847231,0.0001297,53.2154,207.3186,88.8416,271.2724,0.00020194,2.928e-05,0.0,0 STARLINK-4288,1 53005U 22076V   24052.73689701  .00002928  00000-0  20194-3 0  9994,2 53005  53.2154 207.3186 0001297  88.8416 271.2724 15.08847231 90087,6917.858,95.437,540.621,538.826,0.0
53005.0,STARLINK-4288,PAYLOAD,2024-02-22 03:13:26,15.08844908,0.0001223,53.2151,205.5336,88.7465,271.3667,0.00017264,2.461e-05,0.0,0 STARLINK-4288,1 53005U 22076V   24053.13433785  .00002461  00000-0  17264-3 0  9994,2 53005  53.2151 205.5336 0001223  88.7465 271.3667 15.08844908 90617,6917.865,95.437,540.576,538.884,0.0
53005.0,STARLINK-4288,PAYLOAD,2024-02-22 14:21:08,15.0885423,0.0001469,53.2153,203.4525,81.734,278.3819,-0.00037693,-6.284e-05,0.0,0 STARLINK-4288,1 53005U 22076V   24053.59801113 -.00006284  00000-0 -37693-3 0  9995,2 53005  53.2153 203.4525 0001469  81.7340 278.3819 15.08854230 90214,6917.837,95.437,540.718,538.686,0.0
53005.0,STARLINK-4288,PAYLOAD,2024-02-22 17:31:55,15.0884379,0.0001333,53.2158,202.8574,87.0939,273.0205,9.8401e-05,1.279e-05,0.0,0 STARLINK-4288,1 53005U 22076V   24053.73049897  .00001279  00000-0  98401-4 0  9996,2 53005  53.2158 202.8574 0001333  87.0939 273.0205 15.08843790 90231,6917.869,95.437,540.656,538.812,0.0
53005.0,STARLINK-4288,PAYLOAD,2024-02-23 14:11:55,15.08843296,0.0001461,53.2166,198.9917,87.3741,272.7418,5.688e-05,6.17e-06,0.0,0 STARLINK-4288,1 53005U 22076V   24054.59161970  .00000617  00000-0  56880-4 0  9998,2 53005  53.2166 198.9917 0001461  87.3741 272.7418 15.08843296 90369,6917.87,95.437,540.746,538.725,0.0
53005.0,STARLINK-4288,PAYLOAD,2024-02-23 18:58:05,15.0884809,0.0001415,53.2166,198.0989,90.4132,269.7022,7.9439e-05,9.77e-06,0.0,0 STARLINK-4288,1 53005U 22076V   24054.79033672  .00000977  00000-0  79439-4 0  9991,2 53005  53.2166 198.0989 0001415  90.4132 269.7022 15.08848090 90866,6917.856,95.437,540.7,538.742,0.0
53005.0,STARLINK-4288,PAYLOAD,2024-02-24 09:16:34,15.08832981,0.0001111,53.2165,195.4236,78.548,281.5636,1.4355e-05,-5.9e-07,0.0,0 STARLINK-4288,1 53005U 22076V   24055.38650622 -.00000059  00000-0  14355-4 0  9995,2 53005  53.2165 195.4236 0001111  78.5480 281.5636 15.08832981 90952,6917.902,95.438,540.535,538.998,0.0
53005.0,STARLINK-4288,PAYLOAD,2024-02-24 14:02:43,15.08838295,0.0001472,53.2162,194.5329,88.1854,271.9306,8.8756e-05,1.125e-05,0.0,0 STARLINK-4288,1 53005U 22076V   24055.58522451  .00001125  00000-0  88756-4 0  9995,2 53005  53.2162 194.5329 0001472  88.1854 271.9306 15.08838295 90517,6917.886,95.438,540.769,538.732,0.0
53005.0,STARLINK-4288,PAYLOAD,2024-02-24 15:38:06,15.08839448,0.0001398,53.2163,194.2347,90.249,269.8662,0.00010425,1.372e-05,0.0,0 STARLINK-4288,1 53005U 22076V   24055.65146382  .00001372  00000-0  10425-3 0  9999,2 53005  53.2163 194.2347 0001398  90.2490 269.8662 15.08839448 90525,6917.882,95.438,540.714,538.78,0.0
53005.0,STARLINK-4288,PAYLOAD,2024-02-25 15:28:52,15.08857002,0.0001449,53.2173,189.774,92.3165,267.7993,0.00028578,4.265e-05,0.0,0 STARLINK-4288,1 53005U 22076V   24056.64505536  .00004265  00000-0  28578-3 0  9991,2 53005  53.2173 189.7740 0001449  92.3165 267.7993 15.08857002 90677,6917.828,95.436,540.696,538.691,0.0
53005.0,STARLINK-4288,PAYLOAD,2024-02-25 18:39:38,15.08863092,0.0001411,53.2167,189.1778,92.1481,267.9673,0.00036182,5.479e-05,0.0,0 STARLINK-4288,1 53005U 22076V   24056.77753176  .00005479  00000-0  36182-3 0  9998,2 53005  53.2167 189.1778 0001411  92.1481 267.9673 15.08863092 91161,6917.81,95.436,540.651,538.699,0.0
53005.0,STARLINK-4288,PAYLOAD,2024-02-26 12:08:54,15.08841167,0.0001323,53.2177,185.9083,95.4711,264.6432,7.8939e-05,9.69e-06,0.0,0 STARLINK-4288,1 53005U 22076V   24057.50618187  .00000969  00000-0  78939-4 0  9998,2 53005  53.2177 185.9083 0001323  95.4711 264.6432 15.08841167 91277,6917.877,95.437,540.657,538.827,0.0
53005.0,STARLINK-4288,PAYLOAD,2024-02-26 13:44:17,15.08842706,0.0001425,53.2175,185.6108,100.5358,259.5795,7.6706e-05,9.33e-06,0.0,0 STARLINK-4288,1 53005U 22076V   24057.57242054  .00000933  00000-0  76706-4 0  9992,2 53005  53.2175 185.6108 0001425 100.5358 259.5795 15.08842706 90812,6917.872,95.437,540.723,538.751,0.0
53005.0,STARLINK-4288,PAYLOAD,2024-02-26 18:30:26,15.08845205,0.0001352,53.2177,184.7174,85.0741,275.0405,0.0002178,3.181e-05,0.0,0 STARLINK-4288,1 53005U 22076V   24057.77114015  .00003181  00000-0  21780-3 0  9998,2 53005  53.2177 184.7174 0001352  85.0741 275.0405 15.08845205 90840,6917.864,95.437,540.665,538.794,0.0
53005.0,STARLINK-4288,PAYLOAD,2024-02-27 15:10:27,15.08840487,0.0001401,53.2172,180.856,94.8744,265.2408,6.9372e-06,-1.78e-06,0.0,0 STARLINK-4288,1 53005U 22076V   24058.63226327 -.00000178  00000-0  69372-5 0  9999,2 53005  53.2172 180.8560 0001401  94.8744 265.2408 15.08840487 90972,6917.879,95.438,540.713,538.775,0.0
53005.0,STARLINK-4288,PAYLOAD,2024-02-28 13:25:52,15.0883382,0.0001394,53.2167,176.6944,100.7425,259.3724,7.2918e-05,8.73e-06,0.0,0 STARLINK-4288,1 53005U 22076V   24059.55963066  .00000873  00000-0  72918-4 0  9999,2 53005  53.2167 176.6944 0001394 100.7425 259.3724 15.08833820 91585,6917.899,95.438,540.729,538.8,0.0
